{"fetched_at":"2026-07-16T17:46:05.603Z","source":"https://celestrak.org/NORAD/elements/gp.php?GROUP=oneweb&FORMAT=JSON","constellation":"oneweb","records":[{"OBJECT_NAME":"ONEWEB-0275","OBJECT_ID":"2021-060AC","EPOCH":"2026-07-16T02:35:53.847168","CLASSIFICATION_TYPE":"U","MEAN_MOTION":13.16595688,"ECCENTRICITY":0.00020063,"INCLINATION":87.908,"RA_OF_ASC_NODE":223.0311,"ARG_OF_PERICENTER":95.6258,"MEAN_ANOMALY":264.5102,"EPHEMERIS_TYPE":0,"NORAD_CAT_ID":48993,"ELEMENT_SET_NO":999,"REV_AT_EPOCH":24336,"BSTAR":-0.000050322552,"MEAN_MOTION_DOT":-6e-8,"MEAN_MOTION_DDOT":0},{"OBJECT_NAME":"ONEWEB-0276","OBJECT_ID":"2021-060AD","EPOCH":"2026-07-16T03:23:48.049440","CLASSIFICATION_TYPE":"U","MEAN_MOTION":13.16593188,"ECCENTRICITY":0.00018977,"INCLINATION":87.908,"RA_OF_ASC_NODE":223.0235,"ARG_OF_PERICENTER":95.1693,"MEAN_ANOMALY":264.9654,"EPHEMERIS_TYPE":0,"NORAD_CAT_ID":48994,"ELEMENT_SET_NO":999,"REV_AT_EPOCH":24338,"BSTAR":-0.00014760219,"MEAN_MOTION_DOT":-4.4e-7,"MEAN_MOTION_DDOT":0},{"OBJECT_NAME":"ONEWEB-0277","OBJECT_ID":"2021-060AE","EPOCH":"2026-07-16T01:52:36.321024","CLASSIFICATION_TYPE":"U","MEAN_MOTION":13.16595798,"ECCENTRICITY":0.00021687,"INCLINATION":87.9074,"RA_OF_ASC_NODE":223.0432,"ARG_OF_PERICENTER":98.2593,"MEAN_ANOMALY":261.8783,"EPHEMERIS_TYPE":0,"NORAD_CAT_ID":48995,"ELEMENT_SET_NO":999,"REV_AT_EPOCH":24336,"BSTAR":0.00032704106,"MEAN_MOTION_DOT":0.00000138,"MEAN_MOTION_DDOT":0},{"OBJECT_NAME":"ONEWEB-0278","OBJECT_ID":"2021-060AF","EPOCH":"2026-07-16T03:28:21.682560","CLASSIFICATION_TYPE":"U","MEAN_MOTION":13.16593672,"ECCENTRICITY":0.00021878,"INCLINATION":87.9079,"RA_OF_ASC_NODE":223.0224,"ARG_OF_PERICENTER":89.8362,"MEAN_ANOMALY":270.302,"EPHEMERIS_TYPE":0,"NORAD_CAT_ID":48996,"ELEMENT_SET_NO":999,"REV_AT_EPOCH":24350,"BSTAR":-0.00017628378,"MEAN_MOTION_DOT":-5.5e-7,"MEAN_MOTION_DDOT":0},{"OBJECT_NAME":"ONEWEB-0279","OBJECT_ID":"2021-060AG","EPOCH":"2026-07-16T07:18:37.821024","CLASSIFICATION_TYPE":"U","MEAN_MOTION":13.1659432,"ECCENTRICITY":0.00020028,"INCLINATION":87.9081,"RA_OF_ASC_NODE":222.9887,"ARG_OF_PERICENTER":100.5368,"MEAN_ANOMALY":259.5988,"EPHEMERIS_TYPE":0,"NORAD_CAT_ID":48997,"ELEMENT_SET_NO":999,"REV_AT_EPOCH":24345,"BSTAR":0.000097090989,"MEAN_MOTION_DOT":5e-7,"MEAN_MOTION_DDOT":0},{"OBJECT_NAME":"ONEWEB-0280","OBJECT_ID":"2021-060AH","EPOCH":"2026-07-16T02:11:58.185888","CLASSIFICATION_TYPE":"U","MEAN_MOTION":13.16595868,"ECCENTRICITY":0.0002461,"INCLINATION":87.9083,"RA_OF_ASC_NODE":223.0352,"ARG_OF_PERICENTER":94.4164,"MEAN_ANOMALY":265.7248,"EPHEMERIS_TYPE":0,"NORAD_CAT_ID":48998,"ELEMENT_SET_NO":999,"REV_AT_EPOCH":24336,"BSTAR":-0.000059104887,"MEAN_MOTION_DOT":-1e-7,"MEAN_MOTION_DDOT":0},{"OBJECT_NAME":"ONEWEB-0281","OBJECT_ID":"2021-060AJ","EPOCH":"2026-07-16T07:48:12.713760","CLASSIFICATION_TYPE":"U","MEAN_MOTION":13.16620524,"ECCENTRICITY":0.00019084,"INCLINATION":87.9087,"RA_OF_ASC_NODE":222.9836,"ARG_OF_PERICENTER":89.333,"MEAN_ANOMALY":270.802,"EPHEMERIS_TYPE":0,"NORAD_CAT_ID":48999,"ELEMENT_SET_NO":999,"REV_AT_EPOCH":24346,"BSTAR":0.0077129009,"MEAN_MOTION_DOT":0.00002963,"MEAN_MOTION_DDOT":0},{"OBJECT_NAME":"ONEWEB-0282","OBJECT_ID":"2021-060AK","EPOCH":"2026-07-16T03:03:16.432992","CLASSIFICATION_TYPE":"U","MEAN_MOTION":13.16593931,"ECCENTRICITY":0.00021743,"INCLINATION":87.9076,"RA_OF_ASC_NODE":223.0312,"ARG_OF_PERICENTER":96.0755,"MEAN_ANOMALY":264.0623,"EPHEMERIS_TYPE":0,"NORAD_CAT_ID":49000,"ELEMENT_SET_NO":999,"REV_AT_EPOCH":24341,"BSTAR":-0.00017145841,"MEAN_MOTION_DOT":-5.3e-7,"MEAN_MOTION_DDOT":0},{"OBJECT_NAME":"ONEWEB-0283","OBJECT_ID":"2021-060AL","EPOCH":"2026-07-16T02:47:18.641472","CLASSIFICATION_TYPE":"U","MEAN_MOTION":13.16593485,"ECCENTRICITY":0.00020304,"INCLINATION":87.9076,"RA_OF_ASC_NODE":223.0326,"ARG_OF_PERICENTER":98.0118,"MEAN_ANOMALY":262.1244,"EPHEMERIS_TYPE":0,"NORAD_CAT_ID":49001,"ELEMENT_SET_NO":999,"REV_AT_EPOCH":24342,"BSTAR":0.000060937274,"MEAN_MOTION_DOT":3.6e-7,"MEAN_MOTION_DDOT":0},{"OBJECT_NAME":"ONEWEB-0284","OBJECT_ID":"2021-060AM","EPOCH":"2026-07-16T02:38:12.189120","CLASSIFICATION_TYPE":"U","MEAN_MOTION":13.16594166,"ECCENTRICITY":0.00023997,"INCLINATION":87.9079,"RA_OF_ASC_NODE":223.0279,"ARG_OF_PERICENTER":91.0748,"MEAN_ANOMALY":269.0658,"EPHEMERIS_TYPE":0,"NORAD_CAT_ID":49002,"ELEMENT_SET_NO":999,"REV_AT_EPOCH":24340,"BSTAR":-0.00003472799,"MEAN_MOTION_DOT":0,"MEAN_MOTION_DDOT":0},{"OBJECT_NAME":"ONEWEB-0285","OBJECT_ID":"2021-075A","EPOCH":"2026-07-15T21:04:13.735200","CLASSIFICATION_TYPE":"U","MEAN_MOTION":13.12444899,"ECCENTRICITY":0.000177,"INCLINATION":87.8971,"RA_OF_ASC_NODE":344.9578,"ARG_OF_PERICENTER":89.6286,"MEAN_ANOMALY":270.5045,"EPHEMERIS_TYPE":0,"NORAD_CAT_ID":49075,"ELEMENT_SET_NO":999,"REV_AT_EPOCH":23897,"BSTAR":0.0006199,"MEAN_MOTION_DOT":0.00000236,"MEAN_MOTION_DDOT":0},{"OBJECT_NAME":"ONEWEB-0286","OBJECT_ID":"2021-075B","EPOCH":"2026-07-15T22:28:10.996896","CLASSIFICATION_TYPE":"U","MEAN_MOTION":13.12442664,"ECCENTRICITY":0.0001751,"INCLINATION":87.896,"RA_OF_ASC_NODE":344.9606,"ARG_OF_PERICENTER":89.508,"MEAN_ANOMALY":270.6249,"EPHEMERIS_TYPE":0,"NORAD_CAT_ID":49076,"ELEMENT_SET_NO":999,"REV_AT_EPOCH":23833,"BSTAR":0.0011692,"MEAN_MOTION_DOT":0.00000433,"MEAN_MOTION_DDOT":0},{"OBJECT_NAME":"ONEWEB-0287","OBJECT_ID":"2021-075C","EPOCH":"2026-07-15T20:53:33.209664","CLASSIFICATION_TYPE":"U","MEAN_MOTION":13.17648139,"ECCENTRICITY":0.0001874,"INCLINATION":87.9144,"RA_OF_ASC_NODE":0.1591,"ARG_OF_PERICENTER":79.4967,"MEAN_ANOMALY":280.6375,"EPHEMERIS_TYPE":0,"NORAD_CAT_ID":49077,"ELEMENT_SET_NO":999,"REV_AT_EPOCH":23740,"BSTAR":-0.000018015,"MEAN_MOTION_DOT":6e-8,"MEAN_MOTION_DDOT":0},{"OBJECT_NAME":"ONEWEB-0288","OBJECT_ID":"2021-075D","EPOCH":"2026-07-15T21:54:12.559104","CLASSIFICATION_TYPE":"U","MEAN_MOTION":13.12443379,"ECCENTRICITY":0.0001952,"INCLINATION":87.897,"RA_OF_ASC_NODE":344.9444,"ARG_OF_PERICENTER":89.7361,"MEAN_ANOMALY":270.3991,"EPHEMERIS_TYPE":0,"NORAD_CAT_ID":49078,"ELEMENT_SET_NO":999,"REV_AT_EPOCH":23895,"BSTAR":-0.00076854,"MEAN_MOTION_DOT":-0.00000264,"MEAN_MOTION_DDOT":0},{"OBJECT_NAME":"ONEWEB-0289","OBJECT_ID":"2021-075E","EPOCH":"2026-07-16T05:06:50.063616","CLASSIFICATION_TYPE":"U","MEAN_MOTION":13.1764963,"ECCENTRICITY":0.00022823,"INCLINATION":87.9152,"RA_OF_ASC_NODE":0.1096,"ARG_OF_PERICENTER":96.6276,"MEAN_ANOMALY":263.5115,"EPHEMERIS_TYPE":0,"NORAD_CAT_ID":49079,"ELEMENT_SET_NO":999,"REV_AT_EPOCH":23802,"BSTAR":-0.000090705896,"MEAN_MOTION_DOT":-2.2e-7,"MEAN_MOTION_DDOT":0},{"OBJECT_NAME":"ONEWEB-0290","OBJECT_ID":"2021-075F","EPOCH":"2026-07-16T04:27:57.164256","CLASSIFICATION_TYPE":"U","MEAN_MOTION":13.17650109,"ECCENTRICITY":0.00024053,"INCLINATION":87.9154,"RA_OF_ASC_NODE":0.0877,"ARG_OF_PERICENTER":97.006,"MEAN_ANOMALY":263.1346,"EPHEMERIS_TYPE":0,"NORAD_CAT_ID":49080,"ELEMENT_SET_NO":999,"REV_AT_EPOCH":23743,"BSTAR":-0.00028510682,"MEAN_MOTION_DOT":-9.8e-7,"MEAN_MOTION_DDOT":0}]}
