ONEWEB-0275             
1 48993U 21060AC  26197.10826212 -.00000006  00000+0 -50323-4 0  9993
2 48993  87.9080 223.0311 0002006  95.6258 264.5102 13.16595688243362
ONEWEB-0276             
1 48994U 21060AD  26197.14152835 -.00000044  00000+0 -14760-3 0  9997
2 48994  87.9080 223.0235 0001897  95.1693 264.9654 13.16593188243384
ONEWEB-0277             
1 48995U 21060AE  26197.07819816  .00000138  00000+0  32704-3 0  9999
2 48995  87.9074 223.0432 0002168  98.2593 261.8783 13.16595798243368
ONEWEB-0278             
1 48996U 21060AF  26197.14469540 -.00000055  00000+0 -17628-3 0  9991
2 48996  87.9079 223.0224 0002187  89.8362 270.3020 13.16593672243508
ONEWEB-0279             
1 48997U 21060AG  26197.30460441  .00000050  00000+0  97091-4 0  9997
2 48997  87.9081 222.9887 0002002 100.5368 259.5988 13.16594320243455
ONEWEB-0280             
1 48998U 21060AH  26197.09164567 -.00000010  00000+0 -59105-4 0  9996
2 48998  87.9083 223.0352 0002461  94.4164 265.7248 13.16595868243367
ONEWEB-0281             
1 48999U 21060AJ  26197.32514715  .00002963  00000+0  77129-2 0  9998
2 48999  87.9087 222.9836 0001908  89.3330 270.8020 13.16620524243464
ONEWEB-0282             
1 49000U 21060AK  26197.12727353 -.00000053  00000+0 -17146-3 0  9998
2 49000  87.9076 223.0312 0002174  96.0755 264.0623 13.16593931243419
ONEWEB-0283             
1 49001U 21060AL  26197.11618798  .00000036  00000+0  60937-4 0  9996
2 49001  87.9076 223.0326 0002030  98.0118 262.1244 13.16593485243424
ONEWEB-0284             
1 49002U 21060AM  26197.10986330  .00000000  00000+0 -34728-4 0  9997
2 49002  87.9079 223.0279 0002399  91.0748 269.0658 13.16594166243405
ONEWEB-0285             
1 49075U 21075A   26196.87793675  .00000236  00000+0  61990-3 0  9994
2 49075  87.8971 344.9578 0001770  89.6286 270.5045 13.12444899238978
ONEWEB-0286             
1 49076U 21075B   26196.93623839  .00000433  00000+0  11692-2 0  9998
2 49076  87.8960 344.9606 0001751  89.5080 270.6249 13.12442664238334
ONEWEB-0287             
1 49077U 21075C   26196.87052326  .00000006  00000+0 -18015-4 0  9994
2 49077  87.9144   0.1591 0001874  79.4967 280.6375 13.17648139237400
ONEWEB-0288             
1 49078U 21075D   26196.91264536 -.00000264  00000+0 -76854-3 0  9999
2 49078  87.8970 344.9444 0001952  89.7361 270.3991 13.12443379238957
ONEWEB-0289             
1 49079U 21075E   26197.21307944 -.00000022  00000+0 -90706-4 0  9990
2 49079  87.9152   0.1096 0002282  96.6276 263.5115 13.17649630238027
ONEWEB-0290             
1 49080U 21075F   26197.18607829 -.00000098  00000+0 -28511-3 0  9990
2 49080  87.9154   0.0877 0002405  97.0060 263.1346 13.17650109237439
